     2.100          NAVIGATION                              RINEX VERSION / TYPE
fic2rin                                 01/22/2010 00:34:20 PGM / RUN BY / DATE
                                                            END OF HEADER
18 10  1 21 10  0  0.0  .433828681707D-04  .261479726760D-11  .000000000000D+00
     .330000000000D+02  .850000000000D+01  .514521431883D-08 -.247160482307D+01
     .430271029472D-06  .109191284282D-01  .431388616562D-05  .515365926361D+04
     .381600000000D+06  .372529029846D-07  .269663918994D+01 -.126659870148D-06
     .939058382477D+00  .284812500000D+03 -.235521489245D+01 -.836249118847D-08
    -.521450291926D-10  .100000000000D+01  .156700000000D+04  .000000000000D+00
     .240000000000D+01  .000000000000D+00 -.107102096081D-07  .330000000000D+02
     .374406000000D+06  .400000000000D+01
19 10  1 21 10  0  0.0 -.108690001070D-04 -.227373675443D-11  .000000000000D+00
     .113000000000D+03 -.371250000000D+02  .458090509880D-08  .174914818777D+01
    -.169873237610D-05  .605868489947D-02  .100359320641D-04  .515369490623D+04
     .381600000000D+06  .130385160446D-07  .653266374047D+00  .670552253723D-07
     .957860409817D+00  .182781250000D+03 -.181124033686D+00 -.795997442203D-08
    -.241438628317D-09  .100000000000D+01  .156700000000D+04  .000000000000D+00
     .240000000000D+01  .000000000000D+00 -.144354999065D-07  .113000000000D+03
     .374406000000D+06  .400000000000D+01
20 10  1 21 10  0  0.0  .629001297057D-04 -.795807864051D-12  .000000000000D+00
     .450000000000D+02  .108750000000D+02  .516557230968D-08 -.231393809708D+01
     .612810254097D-06  .424883549567D-02  .433437526226D-05  .515369210815D+04
     .381600000000D+06  .596046447754D-07  .264274030227D+01  .372529029846D-08
     .938814819783D+00  .284281250000D+03  .128532530015D+01 -.844178020546D-08
    -.129291099779D-09  .100000000000D+01  .156700000000D+04  .000000000000D+00
     .240000000000D+01  .000000000000D+00 -.745058059692D-08  .450000000000D+02
     .374406000000D+06  .400000000000D+01
21 10  1 21 10  0  0.0 -.354079529643D-04 -.250111042988D-11  .000000000000D+00
     .380000000000D+02  .692812500000D+02  .511164149181D-08 -.131998952586D+01
     .347010791302D-05  .158540669363D-01  .813789665699D-05  .515371513557D+04
     .381600000000D+06  .374391674995D-06  .163889997053D+01 -.176951289177D-06
     .932622967810D+00  .204031250000D+03 -.253247184849D+01 -.824105755884D-08
     .218223375594D-09  .100000000000D+01  .156700000000D+04  .000000000000D+00
     .240000000000D+01  .000000000000D+00 -.121071934700D-07  .380000000000D+02
     .374406000000D+06  .400000000000D+01
22 10  1 21 10  0  0.0  .181022565812D-03 -.682121026330D-12  .000000000000D+00
     .115000000000D+03  .135937500000D+02  .521450291926D-08  .279541982203D+01
     .653788447380D-06  .510790490080D-02  .439956784248D-05  .515365827751D+04
     .381600000000D+06  .149011611938D-07  .270182093062D+01 -.111758708954D-07
     .936738868808D+00  .281812500000D+03 -.188809979692D+01 -.844320883640D-08
    -.126790995640D-09  .100000000000D+01  .156700000000D+04  .000000000000D+00
     .240000000000D+01  .000000000000D+00 -.176951289177D-07  .115000000000D+03
     .374406000000D+06  .400000000000D+01
24 10  1 21 10  0  0.0  .255609396845D-03  .318323145621D-11  .000000000000D+00
     .890000000000D+02  .697812500000D+02  .477305595980D-08 -.279248470805D+01
     .346265733242D-05  .593922543339D-02  .864639878273D-05  .515489198494D+04
     .381600000000D+06 -.149011611938D-07  .167511601732D+01  .949949026108D-07
     .949226480899D+00  .207093750000D+03 -.477503288511D+00 -.809640867649D-08
     .114290474943D-09  .100000000000D+01  .156700000000D+04  .000000000000D+00
     .485000000000D+01  .000000000000D+00 -.139698386192D-08  .890000000000D+02
     .374406000000D+06  .400000000000D+01
25 10  1 21 10  0  0.0  .837757252157D-04  .773070496507D-11  .000000000000D+00
     .600000000000D+01  .286250000000D+02  .413052919598D-08 -.209982105628D+01
     .169873237610D-05  .114888913231D-01  .751949846745D-05  .515369084167D+04
     .381600000000D+06  .204890966415D-07 -.160951881014D+01  .234693288803D-06
     .972000308880D+00  .239718750000D+03 -.120624619837D+01 -.783032616451D-08
     .316798910232D-09  .100000000000D+01  .156700000000D+04  .000000000000D+00
     .240000000000D+01  .630000000000D+02 -.745058059692D-08  .600000000000D+01
     .374406000000D+06  .400000000000D+01
26 10  1 21 10  0  0.0 -.114152207971D-04 -.318323145621D-11  .000000000000D+00
     .800000000000D+01 -.197187500000D+02  .371444043564D-08 -.849422236246D+00
    -.605359673500D-06  .196627868572D-01  .917725265026D-05  .515362434959D+04
     .381600000000D+06  .447034835815D-07 -.250260688060D+01  .396743416786D-06
     .991723799060D+00  .218875000000D+03  .105686728658D+01 -.791068665471D-08
    -.136791412197D-09  .100000000000D+01  .156700000000D+04  .000000000000D+00
     .240000000000D+01  .000000000000D+00 -.605359673500D-08  .800000000000D+01
     .374406000000D+06  .400000000000D+01
27 10  1 21 10  0  0.0  .119046308100D-03  .329691829393D-11  .000000000000D+00
     .890000000000D+02  .199687500000D+02  .408195574413D-08  .196840328214D+01
     .750645995140D-06  .217552683316D-01  .754185020924D-05  .515368397522D+04
     .381600000000D+06  .365078449249D-06 -.157233479435D+01 -.175088644028D-06
     .976885164971D+00  .237156250000D+03 -.147912043827D+01 -.763710383031D-08
     .270368404786D-09  .100000000000D+01  .156700000000D+04  .000000000000D+00
     .240000000000D+01  .000000000000D+00 -.419095158577D-08  .890000000000D+02
     .374406000000D+06  .400000000000D+01
28 10  1 21 10  0  0.0 -.233426690102D-04  .454747350886D-12  .000000000000D+00
     .106000000000D+03 -.484375000000D+02  .454268922124D-08  .301027593490D+01
    -.253692269325D-05  .157143406104D-01  .495091080666D-05  .515366042137D+04
     .381600000000D+06  .130385160446D-06 -.436692425238D+00 -.236555933952D-06
     .969157537210D+00  .286937500000D+03 -.198823007774D+01 -.791497254752D-08
    -.653598653579D-10  .100000000000D+01  .156700000000D+04  .000000000000D+00
     .340000000000D+01  .000000000000D+00 -.107102096081D-07  .106000000000D+03
     .374406000000D+06  .400000000000D+01
29 10  1 21 10  0  0.0  .916393473744D-04  .284217094304D-11  .000000000000D+00
     .460000000000D+02 -.315937500000D+02  .447518640948D-08 -.108873459286D+01
    -.168010592461D-05  .286804779898D-02  .102911144495D-04  .515381157494D+04
     .381600000000D+06 -.577419996262D-07  .606128510040D+00 -.447034835815D-07
     .960529906155D+00  .177906250000D+03 -.131679735522D+01 -.799890461506D-08
    -.224652214809D-09  .100000000000D+01  .156700000000D+04  .000000000000D+00
     .240000000000D+01  .000000000000D+00 -.884756445885D-08  .460000000000D+02
     .374406000000D+06  .400000000000D+01
30 10  1 21 10  0  0.0  .212531071156D-03  .329691829393D-11  .000000000000D+00
     .400000000000D+02 -.354687500000D+02  .496913555587D-08 -.277056814714D+01
    -.179000198841D-05  .119488019263D-01  .478327274323D-05  .515378730202D+04
     .381600000000D+06  .175088644028D-06 -.513430884423D+00  .223517417908D-07
     .954798125826D+00  .282875000000D+03  .147355168554D+01 -.816926885427D-08
     .878608026122D-10  .100000000000D+01  .156700000000D+04  .000000000000D+00
     .240000000000D+01  .000000000000D+00 -.791624188423D-08  .400000000000D+02
     .374406000000D+06  .400000000000D+01
31 10  1 21 10  0  0.0 -.545801594853D-04  .136424205266D-11  .000000000000D+00
     .150000000000D+02  .199375000000D+02  .426303471536D-08 -.446610332484D+00
     .847503542900D-06  .755677709822D-02  .780634582043D-05  .515360346794D+04
     .381600000000D+06 -.800937414169D-07 -.151645484204D+01 -.465661287308D-07
     .975328912718D+00  .237625000000D+03 -.111354326675D+01 -.807176479283D-08
     .395016454021D-09  .100000000000D+01  .156700000000D+04  .000000000000D+00
     .240000000000D+01  .000000000000D+00 -.130385160446D-07  .150000000000D+02
     .374406000000D+06  .400000000000D+01
32 10  1 21 10  0  0.0  .112348236144D-03 -.807176547823D-11  .000000000000D+00
     .840000000000D+02  .462500000000D+01  .482412951579D-08  .370506345259D+00
     .856816768646D-07  .129435481504D-01  .497139990330D-05  .515360702705D+04
     .381600000000D+06 -.186264514923D-07  .275727841560D+01 -.162050127983D-06
     .960874184907D+00  .287500000000D+03 -.103409327281D+01 -.851606901417D-08
    -.215723271454D-09  .100000000000D+01  .156700000000D+04  .000000000000D+00
     .240000000000D+01  .000000000000D+00 -.325962901115D-08  .840000000000D+02
     .374406000000D+06  .400000000000D+01
13 10  1 21  9 59 44.0  .306662637740D-03  .000000000000D+00  .000000000000D+00
     .130000000000D+02 -.118437500000D+02  .352121810144D-08  .205535343324D+01
    -.663101673126D-06  .404257245827D-02  .899843871593D-05  .515360379982D+04
     .381584000000D+06  .465661287308D-07 -.249968937869D+01 -.204890966415D-07
     .993951953494D+00  .222343750000D+03  .163827176133D+01 -.757102964949D-08
    -.106790162525D-09  .100000000000D+01  .156700000000D+04  .000000000000D+00
     .240000000000D+01  .000000000000D+00 -.111758708954D-07  .130000000000D+02
     .375516000000D+06  .400000000000D+01
19 10  1 21  9 59 44.0 -.108680687845D-04 -.227373675443D-11  .000000000000D+00
     .120000000000D+02 -.371250000000D+02  .458019078333D-08  .174681466667D+01
    -.169873237610D-05  .605868618004D-02  .100377947092D-04  .515369491005D+04
     .381584000000D+06  .130385160446D-07  .653266505709D+00  .670552253723D-07
     .957860424446D+00  .182781250000D+03 -.181124314566D+00 -.795961726429D-08
    -.241438628317D-09  .100000000000D+01  .156700000000D+04  .000000000000D+00
     .240000000000D+01  .000000000000D+00 -.144354999065D-07  .120000000000D+02
     .378006000000D+06  .400000000000D+01
